{
  "type": "FeatureCollection",
  "features": [
    {
      "type": "Feature",
      "properties": {
        "norad_id": 55973,
        "name": "TIANMU-1 03",
        "group": "weather",
        "lat": 56.99631405916201,
        "lon": -29.460873986448096,
        "alt_km": 436.70125954580635,
        "timestamp": "2025-12-02T10:50:46.915610+00:00",
        "meta_object_name": "TIANMU-1 03",
        "meta_object_id": "2023-039A",
        "meta_epoch": "2025-12-02T04:04:55.915968",
        "meta_mean_motion": 15.40447037,
        "meta_eccentricity": 0.0004525,
        "meta_inclination": 97.5103,
        "meta_ra_of_asc_node": 138.53,
        "meta_arg_of_pericenter": 91.6272,
        "meta_mean_anomaly": 268.5492,
        "meta_ephemeris_type": 0,
        "meta_classification_type": "U",
        "meta_norad_cat_id": 55973,
        "meta_element_set_no": 999,
        "meta_rev_at_epoch": 15043,
        "meta_bstar": 0.00045274,
        "meta_mean_motion_dot": 0.00018271,
        "meta_mean_motion_ddot": 0,
        "tle_line1": "1 55973U 23039A   25336.17009162  .00018271  00000+0  45274-3 0  9994",
        "tle_line2": "2 55973  97.5103 138.5300 0004525  91.6272 268.5492 15.40447037150433"
      },
      "geometry": {
        "type": "Point",
        "coordinates": [
          -29.460873986448096,
          56.99631405916201
        ]
      }
    },
    {
      "type": "Feature",
      "properties": {
        "norad_id": 55974,
        "name": "TIANMU-1 04",
        "group": "weather",
        "lat": -43.46548529056231,
        "lon": -49.161948953893585,
        "alt_km": 453.14917556506134,
        "timestamp": "2025-12-02T10:50:46.915621+00:00",
        "meta_object_name": "TIANMU-1 04",
        "meta_object_id": "2023-039B",
        "meta_epoch": "2025-12-02T05:12:07.966368",
        "meta_mean_motion": 15.40777706,
        "meta_eccentricity": 0.0005251,
        "meta_inclination": 97.5035,
        "meta_ra_of_asc_node": 137.7734,
        "meta_arg_of_pericenter": 87.5614,
        "meta_mean_anomaly": 272.6233,
        "meta_ephemeris_type": 0,
        "meta_classification_type": "U",
        "meta_norad_cat_id": 55974,
        "meta_element_set_no": 999,
        "meta_rev_at_epoch": 15044,
        "meta_bstar": 0.0004837,
        "meta_mean_motion_dot": 0.00019747,
        "meta_mean_motion_ddot": 0,
        "tle_line1": "1 55974U 23039B   25336.21675887  .00019747  00000+0  48370-3 0  9992",
        "tle_line2": "2 55974  97.5035 137.7734 0005251  87.5614 272.6233 15.40777706150440"
      },
      "geometry": {
        "type": "Point",
        "coordinates": [
          -49.161948953893585,
          -43.46548529056231
        ]
      }
    },
    {
      "type": "Feature",
      "properties": {
        "norad_id": 55975,
        "name": "TIANMU-1 05",
        "group": "weather",
        "lat": -82.47466772755237,
        "lon": -128.2304043918662,
        "alt_km": 455.05889164351265,
        "timestamp": "2025-12-02T10:50:46.915631+00:00",
        "meta_object_name": "TIANMU-1 05",
        "meta_object_id": "2023-039C",
        "meta_epoch": "2025-12-02T05:00:09.508032",
        "meta_mean_motion": 15.40406852,
        "meta_eccentricity": 0.0004324,
        "meta_inclination": 97.508,
        "meta_ra_of_asc_node": 138.2566,
        "meta_arg_of_pericenter": 108.2037,
        "meta_mean_anomaly": 251.968,
        "meta_ephemeris_type": 0,
        "meta_classification_type": "U",
        "meta_norad_cat_id": 55975,
        "meta_element_set_no": 999,
        "meta_rev_at_epoch": 15042,
        "meta_bstar": 0.00047182,
        "meta_mean_motion_dot": 0.0001902,
        "meta_mean_motion_ddot": 0,
        "tle_line1": "1 55975U 23039C   25336.20844338  .00019020  00000+0  47182-3 0  9995",
        "tle_line2": "2 55975  97.5080 138.2566 0004324 108.2037 251.9680 15.40406852150425"
      },
      "geometry": {
        "type": "Point",
        "coordinates": [
          -128.2304043918662,
          -82.47466772755237
        ]
      }
    },
    {
      "type": "Feature",
      "properties": {
        "norad_id": 55976,
        "name": "TIANMU-1 06",
        "group": "weather",
        "lat": -29.67616999219506,
        "lon": -45.347518928388496,
        "alt_km": 450.5894322970962,
        "timestamp": "2025-12-02T10:50:46.915641+00:00",
        "meta_object_name": "TIANMU-1 06",
        "meta_object_id": "2023-039D",
        "meta_epoch": "2025-12-02T03:42:15.806304",
        "meta_mean_motion": 15.40828052,
        "meta_eccentricity": 0.0004659,
        "meta_inclination": 97.5092,
        "meta_ra_of_asc_node": 138.6576,
        "meta_arg_of_pericenter": 103.8992,
        "meta_mean_anomaly": 256.2772,
        "meta_ephemeris_type": 0,
        "meta_classification_type": "U",
        "meta_norad_cat_id": 55976,
        "meta_element_set_no": 999,
        "meta_rev_at_epoch": 15043,
        "meta_bstar": 0.00047113,
        "meta_mean_motion_dot": 0.0001926,
        "meta_mean_motion_ddot": 0,
        "tle_line1": "1 55976U 23039D   25336.15434961  .00019260  00000+0  47113-3 0  9997",
        "tle_line2": "2 55976  97.5092 138.6576 0004659 103.8992 256.2772 15.40828052150437"
      },
      "geometry": {
        "type": "Point",
        "coordinates": [
          -45.347518928388496,
          -29.67616999219506
        ]
      }
    },
    {
      "type": "Feature",
      "properties": {
        "norad_id": 56232,
        "name": "FENGYUN 3G",
        "group": "weather",
        "lat": 41.6472233959579,
        "lon": 52.18340136419335,
        "alt_km": 397.1552718917028,
        "timestamp": "2025-12-02T10:50:46.915651+00:00",
        "meta_object_name": "FENGYUN 3G",
        "meta_object_id": "2023-055A",
        "meta_epoch": "2025-12-02T04:09:19.912032",
        "meta_mean_motion": 15.52680373,
        "meta_eccentricity": 0.0009233,
        "meta_inclination": 49.9948,
        "meta_ra_of_asc_node": 281.9431,
        "meta_arg_of_pericenter": 97.5762,
        "meta_mean_anomaly": 262.6254,
        "meta_ephemeris_type": 0,
        "meta_classification_type": "U",
        "meta_norad_cat_id": 56232,
        "meta_element_set_no": 999,
        "meta_rev_at_epoch": 14938,
        "meta_bstar": 0.000607,
        "meta_mean_motion_dot": 0.00037954,
        "meta_mean_motion_ddot": 0,
        "tle_line1": "1 56232U 23055A   25336.17314713  .00037954  00000+0  60700-3 0  9992",
        "tle_line2": "2 56232  49.9948 281.9431 0009233  97.5762 262.6254 15.52680373149386"
      },
      "geometry": {
        "type": "Point",
        "coordinates": [
          52.18340136419335,
          41.6472233959579
        ]
      }
    },
    {
      "type": "Feature",
      "properties": {
        "norad_id": 57166,
        "name": "METEOR-M2 3",
        "group": "weather",
        "lat": 78.97787611939509,
        "lon": -98.51959982742629,
        "alt_km": 802.8345564544534,
        "timestamp": "2025-12-02T10:50:46.915661+00:00",
        "meta_object_name": "METEOR-M2 3",
        "meta_object_id": "2023-091A",
        "meta_epoch": "2025-12-02T05:20:04.684416",
        "meta_mean_motion": 14.24023955,
        "meta_eccentricity": 0.000446,
        "meta_inclination": 98.6393,
        "meta_ra_of_asc_node": 29.9446,
        "meta_arg_of_pericenter": 36.8876,
        "meta_mean_anomaly": 323.2609,
        "meta_ephemeris_type": 0,
        "meta_classification_type": "U",
        "meta_norad_cat_id": 57166,
        "meta_element_set_no": 999,
        "meta_rev_at_epoch": 12648,
        "meta_bstar": 3.2462e-05,
        "meta_mean_motion_dot": 3.1e-07,
        "meta_mean_motion_ddot": 0,
        "tle_line1": "1 57166U 23091A   25336.22227644  .00000031  00000+0  32462-4 0  9992",
        "tle_line2": "2 57166  98.6393  29.9446 0004460  36.8876 323.2609 14.24023955126482"
      },
      "geometry": {
        "type": "Point",
        "coordinates": [
          -98.51959982742629,
          78.97787611939509
        ]
      }
    },
    {
      "type": "Feature",
      "properties": {
        "norad_id": 57399,
        "name": "TIANMU-1 07",
        "group": "weather",
        "lat": 40.70732595226048,
        "lon": 20.2069628207555,
        "alt_km": 477.6131646131871,
        "timestamp": "2025-12-02T10:50:46.915705+00:00",
        "meta_object_name": "TIANMU-1 07",
        "meta_object_id": "2023-101A",
        "meta_epoch": "2025-12-02T04:22:46.437888",
        "meta_mean_motion": 15.27829747,
        "meta_eccentricity": 0.0005568,
        "meta_inclination": 97.2899,
        "meta_ra_of_asc_node": 26.2667,
        "meta_arg_of_pericenter": 108.478,
        "meta_mean_anomaly": 251.7065,
        "meta_ephemeris_type": 0,
        "meta_classification_type": "U",
        "meta_norad_cat_id": 57399,
        "meta_element_set_no": 999,
        "meta_rev_at_epoch": 13154,
        "meta_bstar": 0.00033183,
        "meta_mean_motion_dot": 8.951e-05,
        "meta_mean_motion_ddot": 0,
        "tle_line1": "1 57399U 23101A   25336.18248192  .00008951  00000+0  33183-3 0  9997",
        "tle_line2": "2 57399  97.2899  26.2667 0005568 108.4780 251.7065 15.27829747131542"
      },
      "geometry": {
        "type": "Point",
        "coordinates": [
          20.2069628207555,
          40.70732595226048
        ]
      }
    }
  ]
}